[C_Anonymus(1345)]
name=C/Anonymus (1345)
type=comet
orbit_Epoch=2212553.500000
orbit_good=1000
orbit_PericenterDistance=0.89000000
orbit_Eccentricity=1.00000000
orbit_Inclination= 23.00000
orbit_ArgOfPericenter=210.00000
orbit_AscendingNode=149.00000
orbit_TimeAtPericenter= 2212553.50000
ref=4thCometCatalog (Hasegawa)
perihelion_code=1345 
slope_parameter=-1000.0

[C_Anonymus(1351)]
name=C/Anonymus (1351)
type=comet
orbit_Epoch=2214832.500000
orbit_good=1000
orbit_PericenterDistance=1.01000000
orbit_Eccentricity=1.00000000
orbit_Inclination=  7.00000
orbit_ArgOfPericenter=165.00000
orbit_AscendingNode=263.00000
orbit_TimeAtPericenter= 2214832.50000
ref=4thCometCatalog (Hasegawa)
perihelion_code=1351 
absolute_magnitude=9.0
slope_parameter=4.0

[C_Anonymus(1362)]
name=C/Anonymus (1362)
type=comet
orbit_Epoch=2218583.500000
orbit_good=1000
orbit_PericenterDistance=0.30000000
orbit_Eccentricity=1.00000000
orbit_Inclination=155.00000
orbit_ArgOfPericenter=348.00000
orbit_AscendingNode=290.00000
orbit_TimeAtPericenter= 2218583.50000
ref=4thCometCatalog (Hasegawa)
perihelion_code=1362 
absolute_magnitude=5.8
slope_parameter=4.0

[P_Tempel-Tuttle(1366)]
name=P/Tempel-Tuttle (1366)
type=comet
orbit_Epoch=2220280.500000
orbit_good=1000
orbit_PericenterDistance=0.97623000
orbit_Eccentricity=0.90640000
orbit_Inclination=162.24300
orbit_ArgOfPericenter=164.49800
orbit_AscendingNode=224.74700
orbit_TimeAtPericenter= 2220280.04300
ref=5thCometCatalog (Yeomans)
perihelion_code=1366 
absolute_magnitude=9.0
slope_parameter=4.0

[C_Anonymus(1368)]
name=C/Anonymus (1368)
type=comet
orbit_Epoch=2220844.500000
orbit_good=1000
orbit_PericenterDistance=0.48000000
orbit_Eccentricity=1.00000000
orbit_Inclination=131.00000
orbit_ArgOfPericenter= 90.00000
orbit_AscendingNode=216.00000
orbit_TimeAtPericenter= 2220844.50000
ref=4thCometCatalog (Hasegawa)
perihelion_code=1368 
slope_parameter=-1000.0

[C_Anonymus(1376)]
name=C/Anonymus (1376)
type=comet
orbit_Epoch=2223854.200000
orbit_good=1000
orbit_PericenterDistance=0.55000000
orbit_Eccentricity=1.00000000
orbit_Inclination= 76.00000
orbit_ArgOfPericenter= 81.00000
orbit_AscendingNode=300.00000
orbit_TimeAtPericenter= 2223854.20000
ref=4thCometCatalog (Hasegawa)
perihelion_code=1376 
slope_parameter=-1000.0

[P_Halley(1378)]
name=P/Halley (1378)
type=comet
orbit_Epoch=2224680.500000
orbit_good=1000
orbit_PericenterDistance=0.57620130
orbit_Eccentricity=0.96837230
orbit_Inclination=163.10897
orbit_ArgOfPericenter=105.27668
orbit_AscendingNode= 50.30348
orbit_TimeAtPericenter= 2224686.18724
ref=5thCometCatalog (YeomansKiang)
perihelion_code=1378 
absolute_magnitude=3.3
slope_parameter=4.0

[C_Anonymus(1385)]
name=C/Anonymus (1385)
type=comet
orbit_Epoch=2227225.500000
orbit_good=1000
orbit_PericenterDistance=0.79000000
orbit_Eccentricity=1.00000000
orbit_Inclination=103.00000
orbit_ArgOfPericenter=182.00000
orbit_AscendingNode=288.00000
orbit_TimeAtPericenter= 2227225.50000
ref=4thCometCatalog (Hasegawa)
perihelion_code=1385 
absolute_magnitude=4.0
slope_parameter=4.0

[C_Anonymus(1402)]
name=C/Anonymus (1402)
type=comet
orbit_Epoch=2233217.500000
orbit_good=1000
orbit_PericenterDistance=0.38000000
orbit_Eccentricity=1.00000000
orbit_Inclination= 55.00000
orbit_ArgOfPericenter= 91.00000
orbit_AscendingNode=125.00000
orbit_TimeAtPericenter= 2233217.50000
ref=4thCometCatalog (Hind)
perihelion_code=1402 
absolute_magnitude=0.5
slope_parameter=4.0

[C_Anonymus(1433)]
name=C/Anonymus (1433)
type=comet
orbit_Epoch=2244772.770000
orbit_good=1000
orbit_PericenterDistance=0.49277000
orbit_Eccentricity=1.00000000
orbit_Inclination=103.98100
orbit_ArgOfPericenter=189.38600
orbit_AscendingNode=103.55500
orbit_TimeAtPericenter= 2244772.77000
ref=4thCometCatalog (Celoria)
perihelion_code=1433 
absolute_magnitude=1.2
slope_parameter=4.0

[C_Anonymus(1439)]
name=C/Anonymus (1439)
type=comet
orbit_Epoch=2246780.500000
orbit_good=1000
orbit_PericenterDistance=0.12000000
orbit_Eccentricity=1.00000000
orbit_Inclination= 81.00000
orbit_ArgOfPericenter=140.00000
orbit_AscendingNode=191.00000
orbit_TimeAtPericenter= 2246780.50000
ref=4thCometCatalog (Hasegawa)
perihelion_code=1439 
slope_parameter=-1000.0

[C_Anonymus(1449)]
name=C/Anonymus (1449)
type=comet
orbit_Epoch=2250648.368000
orbit_good=1000
orbit_PericenterDistance=0.32742000
orbit_Eccentricity=1.00000000
orbit_Inclination=155.67900
orbit_ArgOfPericenter=356.70700
orbit_AscendingNode=268.12500
orbit_TimeAtPericenter= 2250648.36800
ref=4thCometCatalog (Celoria)
perihelion_code=1449 
absolute_magnitude=4.6
slope_parameter=4.0

[P_Halley(1456)]
name=P/Halley (1456)
type=comet
orbit_Epoch=2253040.500000
orbit_good=1000
orbit_PericenterDistance=0.57970140
orbit_Eccentricity=0.96799740
orbit_Inclination=162.88607
orbit_ArgOfPericenter=105.81647
orbit_AscendingNode= 51.15021
orbit_TimeAtPericenter= 2253022.13257
ref=5thCometCatalog (YeomansKiang)
perihelion_code=1456 
absolute_magnitude=3.5
slope_parameter=4.0

[P_Crommelin(1457)]
name=P/Crommelin (1457)
type=comet
orbit_Epoch=2253244.979000
orbit_good=1000
orbit_PericenterDistance=0.70336000
orbit_Eccentricity=1.00000000
orbit_Inclination= 13.25200
orbit_ArgOfPericenter=194.62500
orbit_AscendingNode=256.80300
orbit_TimeAtPericenter= 2253244.97900
ref=4thCometCatalog (Celoria)
perihelion_code=1457 I
absolute_magnitude=6.2
slope_parameter=4.0

[C_Anonymus(1457)]
name=C/Anonymus (1457)
type=comet
orbit_Epoch=2253446.605000
orbit_good=1000
orbit_PericenterDistance=0.76991000
orbit_Eccentricity=1.00000000
orbit_Inclination=  7.34200
orbit_ArgOfPericenter=183.29200
orbit_AscendingNode=186.84200
orbit_TimeAtPericenter= 2253446.60500
ref=4thCometCatalog (Celoria)
perihelion_code=1457 II
absolute_magnitude=3.1
slope_parameter=4.0

[C_Anonymus(1458)]
name=C/Anonymus (1458)
type=comet
orbit_Epoch=2253902.500000
orbit_good=1000
orbit_PericenterDistance=0.49000000
orbit_Eccentricity=1.00000000
orbit_Inclination= 69.00000
orbit_ArgOfPericenter=258.00000
orbit_AscendingNode=116.00000
orbit_TimeAtPericenter= 2253902.50000
ref=4thCometCatalog (Hasegawa)
perihelion_code=1458 
slope_parameter=-1000.0

[C_Anonymus(1462)]
name=C/Anonymus (1462)
type=comet
orbit_Epoch=2255268.500000
orbit_good=1000
orbit_PericenterDistance=0.25000000
orbit_Eccentricity=1.00000000
orbit_Inclination=130.00000
orbit_ArgOfPericenter=137.00000
orbit_AscendingNode=315.00000
orbit_TimeAtPericenter= 2255268.50000
ref=4thCometCatalog (Hasegawa)
perihelion_code=1462 
slope_parameter=-1000.0

[C_Anonymus(1468)]
name=C/Anonymus (1468)
type=comet
orbit_Epoch=2257524.800000
orbit_good=1000
orbit_PericenterDistance=0.85000000
orbit_Eccentricity=1.00000000
orbit_Inclination=138.00000
orbit_ArgOfPericenter= 91.00000
orbit_AscendingNode=106.00000
orbit_TimeAtPericenter= 2257524.80000
ref=4thCometCatalog (Hasegawa)
perihelion_code=1468 
absolute_magnitude=3.2
slope_parameter=4.0

[C_Anonymus(1472)]
name=C/Anonymus (1472)
type=comet
orbit_Epoch=2258765.939000
orbit_good=1000
orbit_PericenterDistance=0.48589000
orbit_Eccentricity=1.00000000
orbit_Inclination=170.86300
orbit_ArgOfPericenter=245.76400
orbit_AscendingNode=292.21000
orbit_TimeAtPericenter= 2258765.93900
ref=4thCometCatalog (Celoria)
perihelion_code=1472 
absolute_magnitude=2.0
slope_parameter=4.0

[C_Anonymus(1491)]
name=C/Anonymus (1491)
type=comet
orbit_Epoch=2265653.400000
orbit_good=1000
orbit_PericenterDistance=0.76100000
orbit_Eccentricity=1.00000000
orbit_Inclination= 73.40000
orbit_ArgOfPericenter=164.90000
orbit_AscendingNode=279.50000
orbit_TimeAtPericenter= 2265653.40000
ref=4thCometCatalog (Hasegawa)
perihelion_code=1491 I
absolute_magnitude=5.4
slope_parameter=4.0

[C_Anonymus(1491)]
name=C/Anonymus (1491)
type=comet
orbit_Epoch=2265667.200000
orbit_good=1000
orbit_PericenterDistance=0.85000000
orbit_Eccentricity=1.00000000
orbit_Inclination=  9.00000
orbit_ArgOfPericenter=316.00000
orbit_AscendingNode=165.00000
orbit_TimeAtPericenter= 2265667.20000
ref=4thCometCatalog (Hasegawa)
perihelion_code=1491 II
slope_parameter=-1000.0

[C_Anonymus(1499)]
name=C/Anonymus (1499)
type=comet
orbit_Epoch=2268818.500000
orbit_good=1000
orbit_PericenterDistance=0.95000000
orbit_Eccentricity=1.00000000
orbit_Inclination= 16.00000
orbit_ArgOfPericenter= 42.00000
orbit_AscendingNode=328.00000
orbit_TimeAtPericenter= 2268818.50000
ref=4thCometCatalog (Hasegawa)
perihelion_code=1499 
absolute_magnitude=9.0
slope_parameter=4.0

